[{"OBJECT_NAME":"STELLA","OBJECT_ID":"1993-061B","EPOCH":"2026-03-09T22:50:14.153280","MEAN_MOTION":14.2746756,"ECCENTRICITY":0.00067535,"INCLINATION":98.784,"RA_OF_ASC_NODE":132.7988,"ARG_OF_PERICENTER":156.9855,"MEAN_ANOMALY":327.7404,"EPHEMERIS_TYPE":0,"CLASSIFICATION_TYPE":"U","NORAD_CAT_ID":22824,"ELEMENT_SET_NO":999,"REV_AT_EPOCH":69061,"BSTAR":7.617075e-6,"MEAN_MOTION_DOT":-2.6e-7,"MEAN_MOTION_DDOT":0},{"OBJECT_NAME":"COSMOS 1818","OBJECT_ID":"1987-011A","EPOCH":"2026-03-09T15:44:10.459104","MEAN_MOTION":14.31860192,"ECCENTRICITY":0.00146185,"INCLINATION":65.0116,"RA_OF_ASC_NODE":166.2565,"ARG_OF_PERICENTER":284.4411,"MEAN_ANOMALY":75.5051,"EPHEMERIS_TYPE":0,"CLASSIFICATION_TYPE":"U","NORAD_CAT_ID":17369,"ELEMENT_SET_NO":999,"REV_AT_EPOCH":9454,"BSTAR":3.3688225e-5,"MEAN_MOTION_DOT":-1.0e-7,"MEAN_MOTION_DDOT":0}]
